start=new Date('2022-12-28T00:00:00.000Z').valueOf();
sats=[{"MEAN_MOTION_DOT":"0.00001614","MEAN_MOTION_DDOT":"0.0000000000000","OBJECT_NAME":"STARLINK-1730","SEMIMAJOR_AXIS":"6925.348","ELEMENT_SET_NO":"999","EPOCH":"2022-12-27T09:00:45.878400","TLE_LINE2":"2 46563  53.0540   1.3902 0002427  38.3213 321.7948 15.06400178123690","SITE":"AFETR","RA_OF_ASC_NODE":"1.3902","OBJECT_ID":"2020-070AH","BSTAR":"0.00012724000000","INCLINATION":"53.0540","LAUNCH_DATE":"2020-10-06","ARG_OF_PERICENTER":"38.3213","CLASSIFICATION_TYPE":"U","MEAN_ELEMENT_THEORY":"SGP4","FILE":"3723863","DECAY_DATE":null,"NORAD_CAT_ID":"46563","PERIAPSIS":"545.532","COUNTRY_CODE":"US","TIME_SYSTEM":"UTC","GP_ID":"221561936","OBJECT_TYPE":"PAYLOAD","TLE_LINE1":"1 46563U 20070AH  22361.37553100  .00001614  00000-0  12724-3 0  9992","EPHEMERIS_TYPE":"0","MEAN_ANOMALY":"321.7948","REF_FRAME":"TEME","CENTER_NAME":"EARTH","MEAN_MOTION":"15.06400178","REV_AT_EPOCH":"12369","ECCENTRICITY":"0.00024270","RCS_SIZE":"LARGE","PERIOD":"95.592","APOAPSIS":"548.894"},{"RA_OF_ASC_NODE":"0.8650","OBJECT_ID":"2020-070AJ","SITE":"AFETR","TLE_LINE2":"2 46564  53.0572   0.8650 0001766  60.5116 299.6049 15.06409914123719","EPOCH":"2022-12-27T11:45:18.120384","ELEMENT_SET_NO":"999","SEMIMAJOR_AXIS":"6925.318","OBJECT_NAME":"STARLINK-1733","MEAN_MOTION_DDOT":"0.0000000000000","MEAN_MOTION_DOT":"0.00001425","NORAD_CAT_ID":"46564","CLASSIFICATION_TYPE":"U","ARG_OF_PERICENTER":"60.5116","DECAY_DATE":null,"FILE":"3723863","MEAN_ELEMENT_THEORY":"SGP4","BSTAR":"0.00011449000000","INCLINATION":"53.0572","LAUNCH_DATE":"2020-10-06","CENTER_NAME":"EARTH","REV_AT_EPOCH":"12371","MEAN_MOTION":"15.06409914","MEAN_ANOMALY":"299.6049","EPHEMERIS_TYPE":"0","REF_FRAME":"TEME","GP_ID":"221562686","TIME_SYSTEM":"UTC","OBJECT_TYPE":"PAYLOAD","TLE_LINE1":"1 46564U 20070AJ  22361.48979306  .00001425  00000-0  11449-3 0  9998","PERIAPSIS":"545.960","COUNTRY_CODE":"US","APOAPSIS":"548.406","RCS_SIZE":"LARGE","PERIOD":"95.592","ECCENTRICITY":"0.00017660"},{"ECCENTRICITY":"0.00016920","PERIOD":"95.590","RCS_SIZE":"LARGE","APOAPSIS":"548.299","PERIAPSIS":"545.955","COUNTRY_CODE":"US","TLE_LINE1":"1 46565U 20070AK  22361.73307710  .00027487  00000-0  18556-2 0  9992","GP_ID":"221618688","TIME_SYSTEM":"UTC","OBJECT_TYPE":"PAYLOAD","REF_FRAME":"TEME","MEAN_ANOMALY":"296.9331","EPHEMERIS_TYPE":"0","REV_AT_EPOCH":"12374","MEAN_MOTION":"15.06428301","CENTER_NAME":"EARTH","LAUNCH_DATE":"2020-10-06","INCLINATION":"53.0520","BSTAR":"0.00185560000000","FILE":"3724149","MEAN_ELEMENT_THEORY":"SGP4","DECAY_DATE":null,"CLASSIFICATION_TYPE":"U","ARG_OF_PERICENTER":"63.1831","NORAD_CAT_ID":"46565","MEAN_MOTION_DDOT":"0.0000000000000","MEAN_MOTION_DOT":"0.00027487","OBJECT_NAME":"STARLINK-1735","SEMIMAJOR_AXIS":"6925.262","TLE_LINE2":"2 46565  53.0520 359.7900 0001692  63.1831 296.9331 15.06428301123746","SITE":"AFETR","EPOCH":"2022-12-27T17:35:37.861440","ELEMENT_SET_NO":"999","OBJECT_ID":"2020-070AK","RA_OF_ASC_NODE":"359.7900"},{"RA_OF_ASC_NODE":"1.3443","OBJECT_ID":"2020-070AL","SITE":"AFETR","TLE_LINE2":"2 46566  53.0530   1.3443 0001547  63.6579 296.4568 15.06414796123697","EPOCH":"2022-12-27T09:16:40.677024","ELEMENT_SET_NO":"999","OBJECT_NAME":"STARLINK-1740","SEMIMAJOR_AXIS":"6925.303","MEAN_MOTION_DDOT":"0.0000000000000","MEAN_MOTION_DOT":"0.00002272","NORAD_CAT_ID":"46566","CLASSIFICATION_TYPE":"U","ARG_OF_PERICENTER":"63.6579","FILE":"3723863","MEAN_ELEMENT_THEORY":"SGP4","DECAY_DATE":null,"BSTAR":"0.00017134000000","INCLINATION":"53.0530","LAUNCH_DATE":"2020-10-06","CENTER_NAME":"EARTH","REV_AT_EPOCH":"12369","MEAN_MOTION":"15.06414796","MEAN_ANOMALY":"296.4568","EPHEMERIS_TYPE":"0","REF_FRAME":"TEME","OBJECT_TYPE":"PAYLOAD","GP_ID":"221561186","TIME_SYSTEM":"UTC","TLE_LINE1":"1 46566U 20070AL  22361.38658191  .00002272  00000-0  17134-3 0  9993","PERIAPSIS":"546.097","COUNTRY_CODE":"US","APOAPSIS":"548.240","RCS_SIZE":"LARGE","PERIOD":"95.591","ECCENTRICITY":"0.00015470"},{"INCLINATION":"53.0572","BSTAR":"0.00008169200000","LAUNCH_DATE":"2020-10-06","CLASSIFICATION_TYPE":"U","ARG_OF_PERICENTER":"43.8967","FILE":"3723863","DECAY_DATE":null,"MEAN_ELEMENT_THEORY":"SGP4","NORAD_CAT_ID":"46567","MEAN_MOTION_DDOT":"0.0000000000000","MEAN_MOTION_DOT":"0.00000936","SEMIMAJOR_AXIS":"6925.306","OBJECT_NAME":"STARLINK-1741","TLE_LINE2":"2 46567  53.0572   1.2070 0002209  43.8967 316.2197 15.06413873123702","EPOCH":"2022-12-27T09:59:07.882944","SITE":"AFETR","ELEMENT_SET_NO":"999","RA_OF_ASC_NODE":"1.2070","OBJECT_ID":"2020-070AM","ECCENTRICITY":"0.00022090","RCS_SIZE":"LARGE","PERIOD":"95.591","APOAPSIS":"548.701","PERIAPSIS":"545.641","COUNTRY_CODE":"US","OBJECT_TYPE":"PAYLOAD","GP_ID":"221562436","TIME_SYSTEM":"UTC","TLE_LINE1":"1 46567U 20070AM  22361.41606346  .00000936  00000-0  81692-4 0  9999","MEAN_ANOMALY":"316.2197","EPHEMERIS_TYPE":"0","REF_FRAME":"TEME","CENTER_NAME":"EARTH","REV_AT_EPOCH":"12370","MEAN_MOTION":"15.06413873"},{"BSTAR":"0.00062165000000","INCLINATION":"53.0561","LAUNCH_DATE":"2020-10-06","ARG_OF_PERICENTER":"37.4875","CLASSIFICATION_TYPE":"U","FILE":"3724149","MEAN_ELEMENT_THEORY":"SGP4","DECAY_DATE":null,"NORAD_CAT_ID":"46569","MEAN_MOTION_DOT":"0.00008995","MEAN_MOTION_DDOT":"0.0000000000000","SEMIMAJOR_AXIS":"6925.286","OBJECT_NAME":"STARLINK-1747","ELEMENT_SET_NO":"999","TLE_LINE2":"2 46569  53.0561 359.9545 0002696  37.4875 322.6302 15.06420285123747","EPOCH":"2022-12-27T16:42:31.810464","SITE":"AFETR","RA_OF_ASC_NODE":"359.9545","OBJECT_ID":"2020-070AP","ECCENTRICITY":"0.00026960","RCS_SIZE":"LARGE","PERIOD":"95.591","APOAPSIS":"549.018","COUNTRY_CODE":"US","PERIAPSIS":"545.284","GP_ID":"221618939","OBJECT_TYPE":"PAYLOAD","TIME_SYSTEM":"UTC","TLE_LINE1":"1 46569U 20070AP  22361.69620151  .00008995  00000-0  62165-3 0  9997","EPHEMERIS_TYPE":"0","MEAN_ANOMALY":"322.6302","REF_FRAME":"TEME","CENTER_NAME":"EARTH","REV_AT_EPOCH":"12374","MEAN_MOTION":"15.06420285"},{"MEAN_MOTION_DDOT":"0.0000000000000","MEAN_MOTION_DOT":"0.00030820","OBJECT_NAME":"STARLINK-1748","SEMIMAJOR_AXIS":"6898.859","TLE_LINE2":"2 46570  53.0567 355.7334 0003244 358.3660   1.7322 15.15084428123777","EPOCH":"2022-12-27T09:45:02.272320","SITE":"AFETR","ELEMENT_SET_NO":"999","OBJECT_ID":"2020-070AQ","RA_OF_ASC_NODE":"355.7334","LAUNCH_DATE":"2020-10-06","INCLINATION":"53.0567","BSTAR":"0.00163640000000","FILE":"3723863","MEAN_ELEMENT_THEORY":"SGP4","DECAY_DATE":null,"CLASSIFICATION_TYPE":"U","ARG_OF_PERICENTER":"358.3660","NORAD_CAT_ID":"46570","PERIAPSIS":"518.486","COUNTRY_CODE":"US","TLE_LINE1":"1 46570U 20070AQ  22361.40627630  .00030820  00000-0  16364-2 0  9998","GP_ID":"221560936","TIME_SYSTEM":"UTC","OBJECT_TYPE":"PAYLOAD","REF_FRAME":"TEME","MEAN_ANOMALY":"1.7322","EPHEMERIS_TYPE":"0","MEAN_MOTION":"15.15084428","REV_AT_EPOCH":"12377","CENTER_NAME":"EARTH","ECCENTRICITY":"0.00032440","PERIOD":"95.044","RCS_SIZE":"LARGE","APOAPSIS":"522.962"},{"MEAN_MOTION_DOT":"0.00004690","MEAN_MOTION_DDOT":"0.0000000000000","SEMIMAJOR_AXIS":"6925.317","OBJECT_NAME":"STARLINK-1531","ELEMENT_SET_NO":"999","TLE_LINE2":"2 46572  53.0561  20.6530 0002224  47.3078 312.8098 15.06410424123432","SITE":"AFETR","EPOCH":"2022-12-27T12:50:17.100096","RA_OF_ASC_NODE":"20.6530","OBJECT_ID":"2020-070AS","BSTAR":"0.00033348000000","INCLINATION":"53.0561","LAUNCH_DATE":"2020-10-06","ARG_OF_PERICENTER":"47.3078","CLASSIFICATION_TYPE":"U","FILE":"3723863","MEAN_ELEMENT_THEORY":"SGP4","DECAY_DATE":null,"NORAD_CAT_ID":"46572","PERIAPSIS":"545.641","COUNTRY_CODE":"US","TIME_SYSTEM":"UTC","GP_ID":"221561685","OBJECT_TYPE":"PAYLOAD","TLE_LINE1":"1 46572U 20070AS  22361.53492014  .00004690  00000-0  33348-3 0  9998","EPHEMERIS_TYPE":"0","MEAN_ANOMALY":"312.8098","REF_FRAME":"TEME","CENTER_NAME":"EARTH","REV_AT_EPOCH":"12343","MEAN_MOTION":"15.06410424","ECCENTRICITY":"0.00022240","RCS_SIZE":"LARGE","PERIOD":"95.591","APOAPSIS":"548.722"},{"COUNTRY_CODE":"US","PERIAPSIS":"413.629","TLE_LINE1":"1 46573U 20070AT  22361.97204260  .00044640  00000-0  77219-3 0  9995","OBJECT_TYPE":"PAYLOAD","GP_ID":"221626939","TIME_SYSTEM":"UTC","REF_FRAME":"TEME","MEAN_ANOMALY":"301.2225","EPHEMERIS_TYPE":"0","MEAN_MOTION":"15.50525536","REV_AT_EPOCH":"12379","CENTER_NAME":"EARTH","ECCENTRICITY":"0.00023020","PERIOD":"92.872","RCS_SIZE":"LARGE","APOAPSIS":"416.756","MEAN_MOTION_DDOT":"0.0000000000000","MEAN_MOTION_DOT":"0.00044640","OBJECT_NAME":"STARLINK-1650","SEMIMAJOR_AXIS":"6793.328","EPOCH":"2022-12-27T23:19:44.480640","TLE_LINE2":"2 46573  53.0566 358.7140 0002302  58.9009 301.2225 15.50525536123792","SITE":"AFETR","ELEMENT_SET_NO":"999","OBJECT_ID":"2020-070AT","RA_OF_ASC_NODE":"358.7140","LAUNCH_DATE":"2020-10-06","INCLINATION":"53.0566","BSTAR":"0.00077219000000","FILE":"3724191","DECAY_DATE":null,"MEAN_ELEMENT_THEORY":"SGP4","CLASSIFICATION_TYPE":"U","ARG_OF_PERICENTER":"58.9009","NORAD_CAT_ID":"46573"},{"BSTAR":"0.00013606000000","INCLINATION":"53.0546","LAUNCH_DATE":"2020-10-06","ARG_OF_PERICENTER":"38.8604","CLASSIFICATION_TYPE":"U","MEAN_ELEMENT_THEORY":"SGP4","FILE":"3723863","DECAY_DATE":null,"NORAD_CAT_ID":"46574","MEAN_MOTION_DOT":"0.00001746","MEAN_MOTION_DDOT":"0.0000000000000","SEMIMAJOR_AXIS":"6925.325","OBJECT_NAME":"STARLINK-1660","ELEMENT_SET_NO":"999","EPOCH":"2022-12-27T10:22:21.602208","TLE_LINE2":"2 46574  53.0546   6.1368 0002390  38.8604 321.2556 15.06407541123630","SITE":"AFETR","RA_OF_ASC_NODE":"6.1368","OBJECT_ID":"2020-070AU","ECCENTRICITY":"0.00023900","RCS_SIZE":"LARGE","PERIOD":"95.592","APOAPSIS":"548.846","PERIAPSIS":"545.535","COUNTRY_CODE":"US","GP_ID":"221562687","OBJECT_TYPE":"PAYLOAD","TIME_SYSTEM":"UTC","TLE_LINE1":"1 46574U 20070AU  22361.43219447  .00001746  00000-0  13606-3 0  9990","EPHEMERIS_TYPE":"0","MEAN_ANOMALY":"321.2556","REF_FRAME":"TEME","CENTER_NAME":"EARTH","REV_AT_EPOCH":"12363","MEAN_MOTION":"15.06407541"}];
